{"fetched_at":"2026-07-06T18:35:12.836Z","source":"https://celestrak.org/NORAD/elements/gp.php?GROUP=kuiper&FORMAT=JSON","constellation":"kuiper","records":[{"OBJECT_NAME":"KUIPER-00027","OBJECT_ID":"2025-088S","EPOCH":"2026-07-05T11:59:58.594272","CLASSIFICATION_TYPE":"U","MEAN_MOTION":14.79939888,"ECCENTRICITY":0.00005596,"INCLINATION":51.9005,"RA_OF_ASC_NODE":294.6407,"ARG_OF_PERICENTER":98.3504,"MEAN_ANOMALY":261.7522,"EPHEMERIS_TYPE":0,"NORAD_CAT_ID":63740,"ELEMENT_SET_NO":999,"REV_AT_EPOCH":6506,"BSTAR":0.00054073041,"MEAN_MOTION_DOT":0.00003904,"MEAN_MOTION_DDOT":0},{"OBJECT_NAME":"KUIPER-00028","OBJECT_ID":"2025-088T","EPOCH":"2026-07-05T14:29:43.098720","CLASSIFICATION_TYPE":"U","MEAN_MOTION":14.79940248,"ECCENTRICITY":0.00004589,"INCLINATION":51.9022,"RA_OF_ASC_NODE":291.634,"ARG_OF_PERICENTER":115.0572,"MEAN_ANOMALY":245.0438,"EPHEMERIS_TYPE":0,"NORAD_CAT_ID":63741,"ELEMENT_SET_NO":999,"REV_AT_EPOCH":6552,"BSTAR":-0.000019814589,"MEAN_MOTION_DOT":-0.00000372,"MEAN_MOTION_DDOT":0},{"OBJECT_NAME":"KUIPER-00029","OBJECT_ID":"2025-088U","EPOCH":"2026-07-05T23:38:35.521440","CLASSIFICATION_TYPE":"U","MEAN_MOTION":14.79914362,"ECCENTRICITY":0.00003177,"INCLINATION":51.9012,"RA_OF_ASC_NODE":288.6313,"ARG_OF_PERICENTER":183.1686,"MEAN_ANOMALY":176.9275,"EPHEMERIS_TYPE":0,"NORAD_CAT_ID":63742,"ELEMENT_SET_NO":999,"REV_AT_EPOCH":6512,"BSTAR":0.00028775542,"MEAN_MOTION_DOT":0.00001972,"MEAN_MOTION_DDOT":0},{"OBJECT_NAME":"KUIPER-00030","OBJECT_ID":"2025-088V","EPOCH":"2026-07-05T13:13:55.335360","CLASSIFICATION_TYPE":"U","MEAN_MOTION":14.79926625,"ECCENTRICITY":0.00007631,"INCLINATION":51.904,"RA_OF_ASC_NODE":309.3751,"ARG_OF_PERICENTER":120.8073,"MEAN_ANOMALY":239.2964,"EPHEMERIS_TYPE":0,"NORAD_CAT_ID":63743,"ELEMENT_SET_NO":999,"REV_AT_EPOCH":6508,"BSTAR":0.00011120394,"MEAN_MOTION_DOT":0.00000627,"MEAN_MOTION_DDOT":0},{"OBJECT_NAME":"KUIPER-00031","OBJECT_ID":"2025-088W","EPOCH":"2026-07-05T12:00:34.078752","CLASSIFICATION_TYPE":"U","MEAN_MOTION":14.76518701,"ECCENTRICITY":0.00020349,"INCLINATION":51.9007,"RA_OF_ASC_NODE":294.2814,"ARG_OF_PERICENTER":171.2194,"MEAN_ANOMALY":188.8803,"EPHEMERIS_TYPE":0,"NORAD_CAT_ID":63744,"ELEMENT_SET_NO":999,"REV_AT_EPOCH":6500,"BSTAR":0.00088328265,"MEAN_MOTION_DOT":0.00006002,"MEAN_MOTION_DDOT":0},{"OBJECT_NAME":"KUIPER-00032","OBJECT_ID":"2025-088X","EPOCH":"2026-07-06T04:05:11.965632","CLASSIFICATION_TYPE":"U","MEAN_MOTION":15.40736352,"ECCENTRICITY":0.00033899,"INCLINATION":51.8661,"RA_OF_ASC_NODE":169.7647,"ARG_OF_PERICENTER":175.0875,"MEAN_ANOMALY":185.0147,"EPHEMERIS_TYPE":0,"NORAD_CAT_ID":63745,"ELEMENT_SET_NO":999,"REV_AT_EPOCH":6779,"BSTAR":0.00037494162,"MEAN_MOTION_DOT":0.00015202,"MEAN_MOTION_DDOT":0},{"OBJECT_NAME":"KUIPER-00033","OBJECT_ID":"2025-088Y","EPOCH":"2026-07-05T18:30:57.991392","CLASSIFICATION_TYPE":"U","MEAN_MOTION":14.79928929,"ECCENTRICITY":0.0000519,"INCLINATION":51.9011,"RA_OF_ASC_NODE":323.4239,"ARG_OF_PERICENTER":91.8805,"MEAN_ANOMALY":268.2217,"EPHEMERIS_TYPE":0,"NORAD_CAT_ID":63746,"ELEMENT_SET_NO":999,"REV_AT_EPOCH":6510,"BSTAR":0.00041083007,"MEAN_MOTION_DOT":0.00002912,"MEAN_MOTION_DDOT":0},{"OBJECT_NAME":"KUIPER-00034","OBJECT_ID":"2025-088Z","EPOCH":"2026-07-05T16:14:41.998272","CLASSIFICATION_TYPE":"U","MEAN_MOTION":14.79943779,"ECCENTRICITY":0.00005615,"INCLINATION":51.9042,"RA_OF_ASC_NODE":286.3771,"ARG_OF_PERICENTER":347.8694,"MEAN_ANOMALY":12.2255,"EPHEMERIS_TYPE":0,"NORAD_CAT_ID":63747,"ELEMENT_SET_NO":999,"REV_AT_EPOCH":6529,"BSTAR":0.00015424733,"MEAN_MOTION_DOT":0.00000955,"MEAN_MOTION_DDOT":0},{"OBJECT_NAME":"KUIPER-00035","OBJECT_ID":"2025-088AA","EPOCH":"2026-07-05T17:13:09.059808","CLASSIFICATION_TYPE":"U","MEAN_MOTION":14.79925041,"ECCENTRICITY":0.00006464,"INCLINATION":51.9004,"RA_OF_ASC_NODE":311.1709,"ARG_OF_PERICENTER":103.5158,"MEAN_ANOMALY":256.5877,"EPHEMERIS_TYPE":0,"NORAD_CAT_ID":63748,"ELEMENT_SET_NO":999,"REV_AT_EPOCH":6500,"BSTAR":0.00015843754,"MEAN_MOTION_DOT":0.00000987,"MEAN_MOTION_DDOT":0},{"OBJECT_NAME":"KUIPER-00037","OBJECT_ID":"2025-088AB","EPOCH":"2026-07-05T18:40:12.364032","CLASSIFICATION_TYPE":"U","MEAN_MOTION":14.79928248,"ECCENTRICITY":0.000051,"INCLINATION":51.9021,"RA_OF_ASC_NODE":309.7599,"ARG_OF_PERICENTER":106.8087,"MEAN_ANOMALY":253.2931,"EPHEMERIS_TYPE":0,"NORAD_CAT_ID":63749,"ELEMENT_SET_NO":999,"REV_AT_EPOCH":6581,"BSTAR":0.00015426486,"MEAN_MOTION_DOT":0.00000955,"MEAN_MOTION_DDOT":0},{"OBJECT_NAME":"KUIPER-00038","OBJECT_ID":"2025-088AC","EPOCH":"2026-07-05T16:47:50.436384","CLASSIFICATION_TYPE":"U","MEAN_MOTION":14.79929262,"ECCENTRICITY":0.00005736,"INCLINATION":51.9026,"RA_OF_ASC_NODE":296.2705,"ARG_OF_PERICENTER":95.1576,"MEAN_ANOMALY":264.9452,"EPHEMERIS_TYPE":0,"NORAD_CAT_ID":63750,"ELEMENT_SET_NO":999,"REV_AT_EPOCH":6499,"BSTAR":0.00017292996,"MEAN_MOTION_DOT":0.00001097,"MEAN_MOTION_DDOT":0},{"OBJECT_NAME":"KUIPER-00039","OBJECT_ID":"2025-134A","EPOCH":"2026-07-05T22:37:17.764608","CLASSIFICATION_TYPE":"U","MEAN_MOTION":14.79940037,"ECCENTRICITY":0.00008061,"INCLINATION":51.902,"RA_OF_ASC_NODE":70.197,"ARG_OF_PERICENTER":97.5389,"MEAN_ANOMALY":262.5665,"EPHEMERIS_TYPE":0,"NORAD_CAT_ID":64500,"ELEMENT_SET_NO":999,"REV_AT_EPOCH":5758,"BSTAR":0.00045487462,"MEAN_MOTION_DOT":0.00003249,"MEAN_MOTION_DDOT":0},{"OBJECT_NAME":"KUIPER-00040","OBJECT_ID":"2025-134B","EPOCH":"2026-07-05T23:10:24.133440","CLASSIFICATION_TYPE":"U","MEAN_MOTION":14.79940893,"ECCENTRICITY":0.00008247,"INCLINATION":51.8979,"RA_OF_ASC_NODE":80.1745,"ARG_OF_PERICENTER":95.3252,"MEAN_ANOMALY":264.7804,"EPHEMERIS_TYPE":0,"NORAD_CAT_ID":64501,"ELEMENT_SET_NO":999,"REV_AT_EPOCH":5744,"BSTAR":0.00072869148,"MEAN_MOTION_DOT":0.00005339,"MEAN_MOTION_DDOT":0},{"OBJECT_NAME":"KUIPER-00041","OBJECT_ID":"2025-134C","EPOCH":"2026-07-05T23:55:07.492800","CLASSIFICATION_TYPE":"U","MEAN_MOTION":14.79939055,"ECCENTRICITY":0.00008092,"INCLINATION":51.8985,"RA_OF_ASC_NODE":82.4221,"ARG_OF_PERICENTER":99.6793,"MEAN_ANOMALY":260.4261,"EPHEMERIS_TYPE":0,"NORAD_CAT_ID":64502,"ELEMENT_SET_NO":999,"REV_AT_EPOCH":5741,"BSTAR":0.0004285662,"MEAN_MOTION_DOT":0.00003048,"MEAN_MOTION_DDOT":0},{"OBJECT_NAME":"KUIPER-00042","OBJECT_ID":"2025-134D","EPOCH":"2026-07-06T02:28:44.405472","CLASSIFICATION_TYPE":"U","MEAN_MOTION":14.79944046,"ECCENTRICITY":0.00006704,"INCLINATION":51.8983,"RA_OF_ASC_NODE":76.9285,"ARG_OF_PERICENTER":100.9128,"MEAN_ANOMALY":259.191,"EPHEMERIS_TYPE":0,"NORAD_CAT_ID":64503,"ELEMENT_SET_NO":999,"REV_AT_EPOCH":5750,"BSTAR":0.00066117969,"MEAN_MOTION_DOT":0.00004824,"MEAN_MOTION_DDOT":0},{"OBJECT_NAME":"KUIPER-00043","OBJECT_ID":"2025-134E","EPOCH":"2026-07-05T23:25:54.641568","CLASSIFICATION_TYPE":"U","MEAN_MOTION":14.79936636,"ECCENTRICITY":0.0000734,"INCLINATION":51.9011,"RA_OF_ASC_NODE":69.9862,"ARG_OF_PERICENTER":105.41,"MEAN_ANOMALY":254.6944,"EPHEMERIS_TYPE":0,"NORAD_CAT_ID":64504,"ELEMENT_SET_NO":999,"REV_AT_EPOCH":5759,"BSTAR":0.00035587928,"MEAN_MOTION_DOT":0.00002493,"MEAN_MOTION_DDOT":0}]}
