[
  {
    "name": "KUIPER-00027",
    "noradId": "63740",
    "line1": "1 63740U 25088S   26186.49998373  .00003904  00000+0  54073-3 0  9995",
    "line2": "2 63740  51.9005 294.6407 0000559  98.3504 261.7522 14.79939888 65060"
  },
  {
    "name": "KUIPER-00028",
    "noradId": "63741",
    "line1": "1 63741U 25088T   26186.60397105 -.00000372  00000+0 -19815-4 0  9999",
    "line2": "2 63741  51.9022 291.6340 0000458 115.0572 245.0438 14.79940248 65527"
  },
  {
    "name": "KUIPER-00029",
    "noradId": "63742",
    "line1": "1 63742U 25088U   26186.98513335  .00001972  00000+0  28776-3 0  9996",
    "line2": "2 63742  51.9012 288.6313 0000317 183.1686 176.9275 14.79914362 65124"
  },
  {
    "name": "KUIPER-00030",
    "noradId": "63743",
    "line1": "1 63743U 25088V   26186.55133490  .00000627  00000+0  11120-3 0  9991",
    "line2": "2 63743  51.9040 309.3751 0000763 120.8073 239.2964 14.79926625 65084"
  },
  {
    "name": "KUIPER-00031",
    "noradId": "63744",
    "line1": "1 63744U 25088W   26186.50039443  .00006002  00000+0  88328-3 0  9997",
    "line2": "2 63744  51.9007 294.2814 0002034 171.2194 188.8803 14.76518701 65009"
  },
  {
    "name": "KUIPER-00032",
    "noradId": "63745",
    "line1": "1 63745U 25088X   26187.17027738  .00015202  00000+0  37494-3 0  9996",
    "line2": "2 63745  51.8661 169.7647 0003389 175.0875 185.0147 15.40736352 67791"
  },
  {
    "name": "KUIPER-00033",
    "noradId": "63746",
    "line1": "1 63746U 25088Y   26186.77150453  .00002912  00000+0  41083-3 0  9996",
    "line2": "2 63746  51.9011 323.4239 0000519  91.8805 268.2217 14.79928929 65107"
  },
  {
    "name": "KUIPER-00034",
    "noradId": "63747",
    "line1": "1 63747U 25088Z   26186.67687498  .00000955  00000+0  15425-3 0  9996",
    "line2": "2 63747  51.9042 286.3771 0000561 347.8694  12.2255 14.79943779 65296"
  },
  {
    "name": "KUIPER-00035",
    "noradId": "63748",
    "line1": "1 63748U 25088AA  26186.71746597  .00000987  00000+0  15844-3 0  9998",
    "line2": "2 63748  51.9004 311.1709 0000646 103.5158 256.5877 14.79925041 65003"
  },
  {
    "name": "KUIPER-00037",
    "noradId": "63749",
    "line1": "1 63749U 25088AB  26186.77792088  .00000955  00000+0  15426-3 0  9992",
    "line2": "2 63749  51.9021 309.7599 0000510 106.8087 253.2931 14.79928248 65816"
  },
  {
    "name": "KUIPER-00038",
    "noradId": "63750",
    "line1": "1 63750U 25088AC  26186.69988931  .00001097  00000+0  17293-3 0  9991",
    "line2": "2 63750  51.9026 296.2705 0000573  95.1576 264.9452 14.79929262 64996"
  },
  {
    "name": "KUIPER-00039",
    "noradId": "64500",
    "line1": "1 64500U 25134A   26186.94256672  .00003249  00000+0  45487-3 0  9992",
    "line2": "2 64500  51.9020  70.1970 0000806  97.5389 262.5665 14.79940037 57584"
  },
  {
    "name": "KUIPER-00040",
    "noradId": "64501",
    "line1": "1 64501U 25134B   26186.96555710  .00005339  00000+0  72869-3 0  9996",
    "line2": "2 64501  51.8979  80.1745 0000824  95.3252 264.7804 14.79940893 57447"
  },
  {
    "name": "KUIPER-00041",
    "noradId": "64502",
    "line1": "1 64502U 25134C   26186.99661450  .00003048  00000+0  42857-3 0  9998",
    "line2": "2 64502  51.8985  82.4221 0000809  99.6793 260.4261 14.79939055 57414"
  },
  {
    "name": "KUIPER-00042",
    "noradId": "64503",
    "line1": "1 64503U 25134D   26187.10329173  .00004824  00000+0  66118-3 0  9995",
    "line2": "2 64503  51.8983  76.9285 0000670 100.9128 259.1910 14.79944046 57507"
  },
  {
    "name": "KUIPER-00043",
    "noradId": "64504",
    "line1": "1 64504U 25134E   26186.97632687  .00002493  00000+0  35588-3 0  9994",
    "line2": "2 64504  51.9011  69.9862 0000734 105.4100 254.6944 14.79936636 57597"
  }
]